start=new Date('2021-11-01T00:00:00.000Z').valueOf();
sats=[{"CENTER_NAME":"EARTH","ELEMENT_SET_NO":"999","OBJECT_NAME":"STARLINK-1485","TIME_SYSTEM":"UTC","MEAN_MOTION":"15.06409111","FILE":"3194950","TLE_LINE1":"1 45774U 20038AW  21304.81833834 -.00001959  00000-0 -11260-3 0  9997","REF_FRAME":"TEME","LAUNCH_DATE":"2020-06-13","DECAY_DATE":null,"PERIAPSIS":"545.625","BSTAR":"-0.00011260000000","INCLINATION":"53.0522","RCS_SIZE":"LARGE","SEMIMAJOR_AXIS":"6925.321","OBJECT_ID":"2020-038AW","PERIOD":"95.592","SITE":"AFETR","MEAN_ELEMENT_THEORY":"SGP4","OBJECT_TYPE":"PAYLOAD","REV_AT_EPOCH":"7712","EPHEMERIS_TYPE":"0","COUNTRY_CODE":"US","APOAPSIS":"548.747","CLASSIFICATION_TYPE":"U","ECCENTRICITY":"0.00022540","RA_OF_ASC_NODE":"133.8316","TLE_LINE2":"2 45774  53.0522 133.8316 0002254  82.5625 277.5620 15.06409111 77126","ARG_OF_PERICENTER":"82.5625","MEAN_MOTION_DDOT":"0.0000000000000","EPOCH":"2021-10-31T19:38:24.432576","GP_ID":"188604544","NORAD_CAT_ID":"45774","MEAN_MOTION_DOT":"-0.00001959","MEAN_ANOMALY":"277.5620"},{"RCS_SIZE":"LARGE","INCLINATION":"53.0539","SEMIMAJOR_AXIS":"6925.358","PERIOD":"95.592","OBJECT_ID":"2020-038AX","PERIAPSIS":"545.901","DECAY_DATE":null,"BSTAR":"0.00003536400000","TLE_LINE1":"1 45775U 20038AX  21304.82203019  .00000245  00000-0  35364-4 0  9992","REF_FRAME":"TEME","LAUNCH_DATE":"2020-06-13","ELEMENT_SET_NO":"999","CENTER_NAME":"EARTH","TIME_SYSTEM":"UTC","OBJECT_NAME":"STARLINK-1488","MEAN_MOTION":"15.06397064","FILE":"3194950","GP_ID":"188604794","MEAN_MOTION_DDOT":"0.0000000000000","EPOCH":"2021-10-31T19:43:43.408416","NORAD_CAT_ID":"45775","MEAN_ANOMALY":"271.0545","MEAN_MOTION_DOT":"0.00000245","ECCENTRICITY":"0.00019080","RA_OF_ASC_NODE":"133.8150","ARG_OF_PERICENTER":"89.0662","TLE_LINE2":"2 45775  53.0539 133.8150 0001908  89.0662 271.0545 15.06397064 77138","COUNTRY_CODE":"US","EPHEMERIS_TYPE":"0","APOAPSIS":"548.544","CLASSIFICATION_TYPE":"U","SITE":"AFETR","MEAN_ELEMENT_THEORY":"SGP4","OBJECT_TYPE":"PAYLOAD","REV_AT_EPOCH":"7713"},{"RA_OF_ASC_NODE":"133.4872","ECCENTRICITY":"0.00016940","TLE_LINE2":"2 45776  53.0517 133.4872 0001694  79.8698 280.2482 15.06399903 77147","ARG_OF_PERICENTER":"79.8698","NORAD_CAT_ID":"45776","MEAN_MOTION_DDOT":"0.0000000000000","EPOCH":"2021-10-31T21:29:52.402560","GP_ID":"188605546","MEAN_MOTION_DOT":"0.00000833","MEAN_ANOMALY":"280.2482","OBJECT_TYPE":"PAYLOAD","SITE":"AFETR","MEAN_ELEMENT_THEORY":"SGP4","REV_AT_EPOCH":"7714","APOAPSIS":"548.387","EPHEMERIS_TYPE":"0","COUNTRY_CODE":"US","CLASSIFICATION_TYPE":"U","DECAY_DATE":null,"PERIAPSIS":"546.041","BSTAR":"0.00007481600000","SEMIMAJOR_AXIS":"6925.349","INCLINATION":"53.0517","RCS_SIZE":"LARGE","OBJECT_ID":"2020-038AY","PERIOD":"95.592","OBJECT_NAME":"STARLINK-1489","TIME_SYSTEM":"UTC","CENTER_NAME":"EARTH","ELEMENT_SET_NO":"999","FILE":"3194950","MEAN_MOTION":"15.06399903","REF_FRAME":"TEME","TLE_LINE1":"1 45776U 20038AY  21304.89574540  .00000833  00000-0  74816-4 0  9998","LAUNCH_DATE":"2020-06-13"},{"REV_AT_EPOCH":"7713","OBJECT_TYPE":"PAYLOAD","MEAN_ELEMENT_THEORY":"SGP4","SITE":"AFETR","CLASSIFICATION_TYPE":"U","APOAPSIS":"548.402","COUNTRY_CODE":"US","EPHEMERIS_TYPE":"0","TLE_LINE2":"2 45777  53.0541 133.8023 0001709  81.5712 278.5471 15.06398362 77136","ARG_OF_PERICENTER":"81.5712","RA_OF_ASC_NODE":"133.8023","ECCENTRICITY":"0.00017090","MEAN_MOTION_DOT":"0.00001520","MEAN_ANOMALY":"278.5471","NORAD_CAT_ID":"45777","EPOCH":"2021-10-31T19:49:01.159104","MEAN_MOTION_DDOT":"0.0000000000000","GP_ID":"188605790","FILE":"3194950","MEAN_MOTION":"15.06398362","OBJECT_NAME":"STARLINK-1490","TIME_SYSTEM":"UTC","CENTER_NAME":"EARTH","ELEMENT_SET_NO":"999","LAUNCH_DATE":"2020-06-13","REF_FRAME":"TEME","TLE_LINE1":"1 45777U 20038AZ  21304.82570786  .00001520  00000-0  12091-3 0  9990","BSTAR":"0.00012091000000","DECAY_DATE":null,"PERIAPSIS":"546.035","OBJECT_ID":"2020-038AZ","PERIOD":"95.592","SEMIMAJOR_AXIS":"6925.354","INCLINATION":"53.0541","RCS_SIZE":"LARGE"},{"TLE_LINE1":"1 45778U 20038BA  21304.80727817  .00000910  00000-0  79989-4 0  9990","REF_FRAME":"TEME","LAUNCH_DATE":"2020-06-13","ELEMENT_SET_NO":"999","CENTER_NAME":"EARTH","TIME_SYSTEM":"UTC","OBJECT_NAME":"STARLINK-1491","MEAN_MOTION":"15.06403233","FILE":"3194950","RCS_SIZE":"LARGE","INCLINATION":"53.0532","SEMIMAJOR_AXIS":"6925.339","PERIOD":"95.592","OBJECT_ID":"2020-038BA","PERIAPSIS":"546.150","DECAY_DATE":null,"BSTAR":"0.00007998900000","COUNTRY_CODE":"US","EPHEMERIS_TYPE":"0","APOAPSIS":"548.258","CLASSIFICATION_TYPE":"U","SITE":"AFETR","MEAN_ELEMENT_THEORY":"SGP4","OBJECT_TYPE":"PAYLOAD","REV_AT_EPOCH":"7711","GP_ID":"188604044","MEAN_MOTION_DDOT":"0.0000000000000","EPOCH":"2021-10-31T19:22:28.833888","NORAD_CAT_ID":"45778","MEAN_ANOMALY":"273.0382","MEAN_MOTION_DOT":"0.00000910","ECCENTRICITY":"0.00015220","RA_OF_ASC_NODE":"133.8861","ARG_OF_PERICENTER":"87.0781","TLE_LINE2":"2 45778  53.0532 133.8861 0001522  87.0781 273.0382 15.06403233 77110"},{"BSTAR":"0.00002466900000","DECAY_DATE":null,"PERIAPSIS":"546.101","OBJECT_ID":"2020-038BB","PERIOD":"95.592","SEMIMAJOR_AXIS":"6925.358","INCLINATION":"53.0540","RCS_SIZE":"LARGE","FILE":"3194950","MEAN_MOTION":"15.06396758","OBJECT_NAME":"STARLINK-1492","TIME_SYSTEM":"UTC","ELEMENT_SET_NO":"999","CENTER_NAME":"EARTH","LAUNCH_DATE":"2020-06-13","REF_FRAME":"TEME","TLE_LINE1":"1 45779U 20038BB  21304.80360090  .00000086  00000-0  24669-4 0  9996","TLE_LINE2":"2 45779  53.0540 133.9080 0001621  87.3991 272.7183 15.06396758 77118","ARG_OF_PERICENTER":"87.3991","RA_OF_ASC_NODE":"133.9080","ECCENTRICITY":"0.00016210","MEAN_MOTION_DOT":"0.00000086","MEAN_ANOMALY":"272.7183","NORAD_CAT_ID":"45779","MEAN_MOTION_DDOT":"0.0000000000000","EPOCH":"2021-10-31T19:17:11.117760","GP_ID":"188604294","REV_AT_EPOCH":"7711","OBJECT_TYPE":"PAYLOAD","SITE":"AFETR","MEAN_ELEMENT_THEORY":"SGP4","CLASSIFICATION_TYPE":"U","APOAPSIS":"548.346","COUNTRY_CODE":"US","EPHEMERIS_TYPE":"0"},{"OBJECT_TYPE":"PAYLOAD","MEAN_ELEMENT_THEORY":"SGP4","SITE":"AFETR","REV_AT_EPOCH":"7711","APOAPSIS":"548.376","EPHEMERIS_TYPE":"0","COUNTRY_CODE":"US","CLASSIFICATION_TYPE":"U","RA_OF_ASC_NODE":"133.8554","ECCENTRICITY":"0.00016770","TLE_LINE2":"2 45780  53.0540 133.8554 0001677  82.8481 277.2698 15.06399586 77113","ARG_OF_PERICENTER":"82.8481","NORAD_CAT_ID":"45780","EPOCH":"2021-10-31T19:33:06.121152","MEAN_MOTION_DDOT":"0.0000000000000","GP_ID":"188605046","MEAN_MOTION_DOT":"-0.00000426","MEAN_ANOMALY":"277.2698","OBJECT_NAME":"STARLINK-1496","TIME_SYSTEM":"UTC","CENTER_NAME":"EARTH","ELEMENT_SET_NO":"999","FILE":"3194950","MEAN_MOTION":"15.06399586","REF_FRAME":"TEME","TLE_LINE1":"1 45780U 20038BC  21304.81465418 -.00000426  00000-0 -96771-5 0  9993","LAUNCH_DATE":"2020-06-13","DECAY_DATE":null,"PERIAPSIS":"546.053","BSTAR":"-0.00000967710000","SEMIMAJOR_AXIS":"6925.350","INCLINATION":"53.0540","RCS_SIZE":"LARGE","OBJECT_ID":"2020-038BC","PERIOD":"95.592"},{"LAUNCH_DATE":"2020-06-13","TLE_LINE1":"1 45781U 20038BD  21304.57507401  .00001451  00000-0  11633-3 0  9995","REF_FRAME":"TEME","MEAN_MOTION":"15.06398985","FILE":"3194431","CENTER_NAME":"EARTH","ELEMENT_SET_NO":"999","OBJECT_NAME":"STARLINK-1497","TIME_SYSTEM":"UTC","OBJECT_ID":"2020-038BD","PERIOD":"95.592","INCLINATION":"53.0536","RCS_SIZE":"LARGE","SEMIMAJOR_AXIS":"6925.352","BSTAR":"0.00011633000000","DECAY_DATE":null,"PERIAPSIS":"545.964","CLASSIFICATION_TYPE":"U","COUNTRY_CODE":"US","EPHEMERIS_TYPE":"0","APOAPSIS":"548.469","REV_AT_EPOCH":"7708","MEAN_ELEMENT_THEORY":"SGP4","SITE":"AFETR","OBJECT_TYPE":"PAYLOAD","MEAN_MOTION_DOT":"0.00001451","MEAN_ANOMALY":"273.1101","MEAN_MOTION_DDOT":"0.0000000000000","EPOCH":"2021-10-31T13:48:06.394464","GP_ID":"188570401","NORAD_CAT_ID":"45781","TLE_LINE2":"2 45781  53.0536 134.9315 0001809  87.0095 273.1101 15.06398985 77083","ARG_OF_PERICENTER":"87.0095","ECCENTRICITY":"0.00018090","RA_OF_ASC_NODE":"134.9315"},{"EPOCH":"2021-10-31T19:59:37.898592","MEAN_MOTION_DDOT":"0.0000000000000","GP_ID":"188604545","NORAD_CAT_ID":"45782","MEAN_MOTION_DOT":"0.00002304","MEAN_ANOMALY":"276.9431","ECCENTRICITY":"0.00016370","RA_OF_ASC_NODE":"133.7667","TLE_LINE2":"2 45782  53.0541 133.7667 0001637  83.1744 276.9431 15.06409846 77136","ARG_OF_PERICENTER":"83.1744","EPHEMERIS_TYPE":"0","COUNTRY_CODE":"US","APOAPSIS":"548.317","CLASSIFICATION_TYPE":"U","SITE":"AFETR","MEAN_ELEMENT_THEORY":"SGP4","OBJECT_TYPE":"PAYLOAD","REV_AT_EPOCH":"7713","INCLINATION":"53.0541","RCS_SIZE":"LARGE","SEMIMAJOR_AXIS":"6925.318","OBJECT_ID":"2020-038BE","PERIOD":"95.592","DECAY_DATE":null,"PERIAPSIS":"546.050","BSTAR":"0.00017349000000","TLE_LINE1":"1 45782U 20038BE  21304.83307753  .00002304  00000-0  17349-3 0  9991","REF_FRAME":"TEME","LAUNCH_DATE":"2020-06-13","CENTER_NAME":"EARTH","ELEMENT_SET_NO":"999","OBJECT_NAME":"STARLINK-1498","TIME_SYSTEM":"UTC","MEAN_MOTION":"15.06409846","FILE":"3194950"},{"REV_AT_EPOCH":"7710","MEAN_ELEMENT_THEORY":"SGP4","SITE":"AFETR","OBJECT_TYPE":"PAYLOAD","CLASSIFICATION_TYPE":"U","EPHEMERIS_TYPE":"0","COUNTRY_CODE":"US","APOAPSIS":"548.426","ARG_OF_PERICENTER":"88.1690","TLE_LINE2":"2 45783  53.0527 134.6311 0001734  88.1690 271.9497 15.06396308 77102","ECCENTRICITY":"0.00017340","RA_OF_ASC_NODE":"134.6311","MEAN_ANOMALY":"271.9497","MEAN_MOTION_DOT":"-0.00000230","GP_ID":"188604795","EPOCH":"2021-10-31T15:18:20.155392","MEAN_MOTION_DDOT":"0.0000000000000","NORAD_CAT_ID":"45783","MEAN_MOTION":"15.06396308","FILE":"3194950","CENTER_NAME":"EARTH","ELEMENT_SET_NO":"999","TIME_SYSTEM":"UTC","OBJECT_NAME":"STARLINK-1505","LAUNCH_DATE":"2020-06-13","TLE_LINE1":"1 45783U 20038BF  21304.63773328 -.00000230  00000-0  34378-5 0  9995","REF_FRAME":"TEME","BSTAR":"0.00000343780000","PERIAPSIS":"546.024","DECAY_DATE":null,"PERIOD":"95.592","OBJECT_ID":"2020-038BF","RCS_SIZE":"LARGE","INCLINATION":"53.0527","SEMIMAJOR_AXIS":"6925.360"}];
